{
  "type": "FeatureCollection",
  "features": [
    {
      "type": "Feature",
      "properties": {
        "norad_id": 37836,
        "name": "EUTELSAT 16A",
        "group": "eutelsat",
        "lat": 0.019387862924142706,
        "lon": -1.4518322467951177,
        "alt_km": 35785.2645786521,
        "timestamp": "2025-12-21T16:47:54.400265+00:00",
        "meta_object_name": "EUTELSAT 16A",
        "meta_object_id": "2011-057A",
        "meta_epoch": "2025-12-21T08:08:13.456032",
        "meta_mean_motion": 1.00269622,
        "meta_eccentricity": 0.000586,
        "meta_inclination": 0.0588,
        "meta_ra_of_asc_node": 339.8459,
        "meta_arg_of_pericenter": 291.8691,
        "meta_mean_anomaly": 316.5006,
        "meta_ephemeris_type": 0,
        "meta_classification_type": "U",
        "meta_norad_cat_id": 37836,
        "meta_element_set_no": 999,
        "meta_rev_at_epoch": 554,
        "meta_bstar": 0,
        "meta_mean_motion_dot": 1.27e-06,
        "meta_mean_motion_ddot": 0,
        "tle_line1": "1 37836U 11057A   25355.33904463  .00000127  00000+0  00000+0 0  9991",
        "tle_line2": "2 37836   0.0588 339.8459 0005860 291.8691 316.5006  1.00269622  5549"
      },
      "geometry": {
        "type": "Point",
        "coordinates": [
          -1.4518322467951177,
          0.019387862924142706
        ]
      }
    },
    {
      "type": "Feature",
      "properties": {
        "norad_id": 38992,
        "name": "EUTELSAT 21B",
        "group": "eutelsat",
        "lat": 0.028452102149096697,
        "lon": 4.113739974295503,
        "alt_km": 35786.55198901147,
        "timestamp": "2025-12-21T16:47:54.400276+00:00",
        "meta_object_name": "EUTELSAT 21B",
        "meta_object_id": "2012-062B",
        "meta_epoch": "2025-12-21T11:35:04.523136",
        "meta_mean_motion": 1.00269505,
        "meta_eccentricity": 0.0003269,
        "meta_inclination": 0.0679,
        "meta_ra_of_asc_node": 341.9019,
        "meta_arg_of_pericenter": 292.8174,
        "meta_mean_anomaly": 10.9451,
        "meta_ephemeris_type": 0,
        "meta_classification_type": "U",
        "meta_norad_cat_id": 38992,
        "meta_element_set_no": 999,
        "meta_rev_at_epoch": 4804,
        "meta_bstar": 0,
        "meta_mean_motion_dot": 1.52e-06,
        "meta_mean_motion_ddot": 0,
        "tle_line1": "1 38992U 12062B   25355.48269124  .00000152  00000+0  00000+0 0  9994",
        "tle_line2": "2 38992   0.0679 341.9019 0003269 292.8174  10.9451  1.00269505 48049"
      },
      "geometry": {
        "type": "Point",
        "coordinates": [
          4.113739974295503,
          0.028452102149096697
        ]
      }
    },
    {
      "type": "Feature",
      "properties": {
        "norad_id": 39020,
        "name": "EUTELSAT 70B",
        "group": "eutelsat",
        "lat": 0.0648410654509451,
        "lon": 52.99124490255275,
        "alt_km": 35802.85125360799,
        "timestamp": "2025-12-21T16:47:54.400288+00:00",
        "meta_object_name": "EUTELSAT 70B",
        "meta_object_id": "2012-069A",
        "meta_epoch": "2025-12-21T11:49:18.160320",
        "meta_mean_motion": 1.00271547,
        "meta_eccentricity": 0.0004253,
        "meta_inclination": 0.0616,
        "meta_ra_of_asc_node": 7.0002,
        "meta_arg_of_pericenter": 247.7206,
        "meta_mean_anomaly": 83.4052,
        "meta_ephemeris_type": 0,
        "meta_classification_type": "U",
        "meta_norad_cat_id": 39020,
        "meta_element_set_no": 999,
        "meta_rev_at_epoch": 4772,
        "meta_bstar": 0,
        "meta_mean_motion_dot": -2.1e-07,
        "meta_mean_motion_ddot": 0,
        "tle_line1": "1 39020U 12069A   25355.49257130 -.00000021  00000+0  00000+0 0  9995",
        "tle_line2": "2 39020   0.0616   7.0002 0004253 247.7206  83.4052  1.00271547 47729"
      },
      "geometry": {
        "type": "Point",
        "coordinates": [
          52.99124490255275,
          0.0648410654509451
        ]
      }
    },
    {
      "type": "Feature",
      "properties": {
        "norad_id": 39122,
        "name": "EUTELSAT 117 WEST A",
        "group": "eutelsat",
        "lat": -0.04171030356779391,
        "lon": -134.32353537631124,
        "alt_km": 35779.02087387064,
        "timestamp": "2025-12-21T16:47:54.400300+00:00",
        "meta_object_name": "EUTELSAT 117 WEST A",
        "meta_object_id": "2013-012A",
        "meta_epoch": "2025-12-21T10:55:49.902816",
        "meta_mean_motion": 1.00270479,
        "meta_eccentricity": 0.0002602,
        "meta_inclination": 0.0281,
        "meta_ra_of_asc_node": 305.356,
        "meta_arg_of_pericenter": 328.0329,
        "meta_mean_anomaly": 224.0594,
        "meta_ephemeris_type": 0,
        "meta_classification_type": "U",
        "meta_norad_cat_id": 39122,
        "meta_element_set_no": 999,
        "meta_rev_at_epoch": 4665,
        "meta_bstar": 0,
        "meta_mean_motion_dot": 1e-07,
        "meta_mean_motion_ddot": 0,
        "tle_line1": "1 39122U 13012A   25355.45543869  .00000010  00000+0  00000+0 0  9997",
        "tle_line2": "2 39122   0.0281 305.3560 0002602 328.0329 224.0594  1.00270479 46656"
      },
      "geometry": {
        "type": "Point",
        "coordinates": [
          -134.32353537631124,
          -0.04171030356779391
        ]
      }
    },
    {
      "type": "Feature",
      "properties": {
        "norad_id": 39163,
        "name": "EUTELSAT 7B",
        "group": "eutelsat",
        "lat": -0.01903494894144883,
        "lon": -10.498204837452429,
        "alt_km": 35769.90416944075,
        "timestamp": "2025-12-21T16:47:54.400313+00:00",
        "meta_object_name": "EUTELSAT 7B",
        "meta_object_id": "2013-022A",
        "meta_epoch": "2025-12-21T08:05:43.696320",
        "meta_mean_motion": 1.00270971,
        "meta_eccentricity": 0.0004388,
        "meta_inclination": 0.0651,
        "meta_ra_of_asc_node": 1.3717,
        "meta_arg_of_pericenter": 320.8565,
        "meta_mean_anomaly": 256.3575,
        "meta_ephemeris_type": 0,
        "meta_classification_type": "U",
        "meta_norad_cat_id": 39163,
        "meta_element_set_no": 999,
        "meta_rev_at_epoch": 4616,
        "meta_bstar": 0,
        "meta_mean_motion_dot": 7.1e-07,
        "meta_mean_motion_ddot": 0,
        "tle_line1": "1 39163U 13022A   25355.33731130  .00000071  00000+0  00000+0 0  9997",
        "tle_line2": "2 39163   0.0651   1.3717 0004388 320.8565 256.3575  1.00270971 46164"
      },
      "geometry": {
        "type": "Point",
        "coordinates": [
          -10.498204837452429,
          -0.01903494894144883
        ]
      }
    },
    {
      "type": "Feature",
      "properties": {
        "norad_id": 39612,
        "name": "EXPRESS-AT1",
        "group": "eutelsat",
        "lat": 0.03199178397211506,
        "lon": 38.47596406731248,
        "alt_km": 35786.6975098304,
        "timestamp": "2025-12-21T16:47:54.400325+00:00",
        "meta_object_name": "EXPRESS-AT1",
        "meta_object_id": "2014-010A",
        "meta_epoch": "2025-12-21T11:45:11.053728",
        "meta_mean_motion": 1.00272675,
        "meta_eccentricity": 8.47e-05,
        "meta_inclination": 0.0192,
        "meta_ra_of_asc_node": 307.9841,
        "meta_arg_of_pericenter": 195.1584,
        "meta_mean_anomaly": 179.4626,
        "meta_ephemeris_type": 0,
        "meta_classification_type": "U",
        "meta_norad_cat_id": 39612,
        "meta_element_set_no": 999,
        "meta_rev_at_epoch": 4303,
        "meta_bstar": 0,
        "meta_mean_motion_dot": 1.01e-06,
        "meta_mean_motion_ddot": 0,
        "tle_line1": "1 39612U 14010A   25355.48971127  .00000101  00000+0  00000+0 0  9996",
        "tle_line2": "2 39612   0.0192 307.9841 0000847 195.1584 179.4626  1.00272675 43034"
      },
      "geometry": {
        "type": "Point",
        "coordinates": [
          38.47596406731248,
          0.03199178397211506
        ]
      }
    },
    {
      "type": "Feature",
      "properties": {
        "norad_id": 39613,
        "name": "EXPRESS-AT2",
        "group": "eutelsat",
        "lat": 0.025297350628342256,
        "lon": 122.3352883654582,
        "alt_km": 35790.818412832436,
        "timestamp": "2025-12-21T16:47:54.400337+00:00",
        "meta_object_name": "EXPRESS-AT2",
        "meta_object_id": "2014-010B",
        "meta_epoch": "2025-12-21T03:35:19.372992",
        "meta_mean_motion": 1.00270951,
        "meta_eccentricity": 0.00010602,
        "meta_inclination": 0.019,
        "meta_ra_of_asc_node": 327.4725,
        "meta_arg_of_pericenter": 327.2965,
        "meta_mean_anomaly": 348.8895,
        "meta_ephemeris_type": 0,
        "meta_classification_type": "U",
        "meta_norad_cat_id": 39613,
        "meta_element_set_no": 999,
        "meta_rev_at_epoch": 4271,
        "meta_bstar": 0,
        "meta_mean_motion_dot": -2.58e-06,
        "meta_mean_motion_ddot": 0,
        "tle_line1": "1 39613U 14010B   25355.14952978 -.00000258  00000+0  00000+0 0  9997",
        "tle_line2": "2 39613   0.0190 327.4725 0001060 327.2965 348.8895  1.00270951 42719"
      },
      "geometry": {
        "type": "Point",
        "coordinates": [
          122.3352883654582,
          0.025297350628342256
        ]
      }
    }
  ]
}